TIANMU-1 08             
1 57400U 23101B   26066.00237819  .00000346  00000+0  14775-4 0  9993
2 57400  97.2717 118.7901 0006380 134.2174 225.9592 15.29204229146020
STARLINK-30713          
1 57952U 23148T   26068.16066212  .00005251  00000+0  18932-3 0  9990
2 57952  53.1601  26.5766 0001236  69.2154 290.8980 15.30192059138347
